STARLINK-31401          
1 59417U 24064V   26068.28431770 -.00000960  00000+0 -25367-4 0  9999
2 59417  43.0046  51.5445 0001413 251.7508 108.3190 15.27579016108998
FLOCK 4G-29             
1 62642U 25009AK  26068.81464037  .00011147  00000+0  41831-3 0  9994
2 62642  97.4058 151.3683 0001366 288.0502  72.0588 15.27382318 63721
